SKYKRAFT-1A             
1 55054U 23001AX  26068.71064616  .00008177  00000+0  30069-3 0  9991
2 55054  97.3349 127.6290 0011277 121.5092 238.7251 15.28083228176529
STARLINK-31996          
1 60100U 24117K   26068.32344912  .00000690  00000+0  35447-4 0  9993
2 60100  53.1613  38.5903 0001267  87.5677 272.5469 15.30178795 96839
