[{"OBJECT_NAME":"SKYKRAFT-1A","OBJECT_ID":"2023-001AX","EPOCH":"2026-03-09T17:03:19.828224","MEAN_MOTION":15.28083228,"ECCENTRICITY":0.00112767,"INCLINATION":97.3349,"RA_OF_ASC_NODE":127.629,"ARG_OF_PERICENTER":121.5092,"MEAN_ANOMALY":238.7251,"EPHEMERIS_TYPE":0,"CLASSIFICATION_TYPE":"U","NORAD_CAT_ID":55054,"ELEMENT_SET_NO":999,"REV_AT_EPOCH":17652,"BSTAR":0.0003006872,"MEAN_MOTION_DOT":8.177e-5,"MEAN_MOTION_DDOT":0},{"OBJECT_NAME":"STARLINK-31996","OBJECT_ID":"2024-117K","EPOCH":"2026-03-09T07:45:46.003968","MEAN_MOTION":15.30178795,"ECCENTRICITY":0.00012672,"INCLINATION":53.1613,"RA_OF_ASC_NODE":38.5903,"ARG_OF_PERICENTER":87.5677,"MEAN_ANOMALY":272.5469,"EPHEMERIS_TYPE":0,"CLASSIFICATION_TYPE":"U","NORAD_CAT_ID":60100,"ELEMENT_SET_NO":999,"REV_AT_EPOCH":9683,"BSTAR":3.5447249e-5,"MEAN_MOTION_DOT":6.9e-6,"MEAN_MOTION_DDOT":0}]
